[{"OBJECT_NAME":"STARLINK-30130","OBJECT_ID":"2023-067K","EPOCH":"2026-03-08T23:28:59.065824","MEAN_MOTION":15.26744788,"ECCENTRICITY":0.00021899,"INCLINATION":43.0019,"RA_OF_ASC_NODE":274.8532,"ARG_OF_PERICENTER":263.0588,"MEAN_ANOMALY":97.0015,"EPHEMERIS_TYPE":0,"CLASSIFICATION_TYPE":"U","NORAD_CAT_ID":56697,"ELEMENT_SET_NO":999,"REV_AT_EPOCH":15533,"BSTAR":4.57425e-7,"MEAN_MOTION_DOT":-2.48e-6,"MEAN_MOTION_DDOT":0},{"OBJECT_NAME":"OBJECT C","OBJECT_ID":"2023-104C","EPOCH":"2026-03-09T22:39:44.230752","MEAN_MOTION":15.26846312,"ECCENTRICITY":0.00113074,"INCLINATION":97.273,"RA_OF_ASC_NODE":135.3333,"ARG_OF_PERICENTER":3.876,"MEAN_ANOMALY":356.2565,"EPHEMERIS_TYPE":0,"CLASSIFICATION_TYPE":"U","NORAD_CAT_ID":57426,"ELEMENT_SET_NO":999,"REV_AT_EPOCH":14663,"BSTAR":0.00062618506,"MEAN_MOTION_DOT":0.00016495,"MEAN_MOTION_DDOT":0}]
